NORAD_CAT_ID,OBJECT_NAME,OBJECT_TYPE,EPOCH,MEAN_MOTION,ECCENTRICITY,INCLINATION,RA_OF_ASC_NODE,ARG_OF_PERICENTER,MEAN_ANOMALY,BSTAR,MEAN_MOTION_DOT,MEAN_MOTION_DDOT,TLE_LINE0,TLE_LINE1,TLE_LINE2,SEMIMAJOR_AXIS,PERIOD,APOGEE,PERIGEE,DECAYED
53834.0,STARLINK-4737,PAYLOAD,2022-09-23 16:00:00,15.88070455,0.0031452,53.2174,236.2195,55.2657,35.006,-0.0043703,-0.01267873,0.0004536999999999,0 STARLINK-4737,1 53834U 22114S   22266.66667824 -.01267873  45370-3 -43703-2 0  9993,2 53834  53.2174 236.2195 0031452  55.2657  35.0060 15.88070455  1301,6685.83,90.676,328.723,286.6670000000001,0.0
53834.0,STARLINK-4737,PAYLOAD,2022-09-24 06:00:00,15.86548595,0.0025602,53.2172,233.2733,56.6768,128.9602,-0.0048242,-0.0127835,0.00045419,0 STARLINK-4737,1 53834U 22114S   22267.25001157 -.01278350  45419-3 -48242-2 0  9999,2 53834  53.2172 233.2733 0025602  56.6768 128.9602 15.86548595  1398,6690.105,90.763,329.098,294.842,0.0
53834.0,STARLINK-4737,PAYLOAD,2022-09-24 14:00:01,15.85718397,0.0022009,53.2168,231.5908,56.2096,233.961,-0.0053235,-0.01343873,0.00049379,0 STARLINK-4737,1 53834U 22114S   22267.58335648 -.01343873  49379-3 -53235-2 0  9990,2 53834  53.2168 231.5908 0022009  56.2096 233.9610 15.85718397  1446,6692.44,90.811,329.034,299.575,0.0
53834.0,STARLINK-4737,PAYLOAD,2022-09-24 22:00:00,15.84839811,0.0018507,53.2176,229.9112,54.2313,339.3164,-0.0054555,-0.01162089,0.0,0 STARLINK-4737,1 53834U 22114S   22267.91667824 -.01162089  00000-0 -54555-2 0  9990,2 53834  53.2176 229.9112 0018507  54.2313 339.3164 15.84839811  1305,6694.913000000001,90.861,329.168,304.388,0.0
53834.0,STARLINK-4737,PAYLOAD,2022-09-25 14:00:01,15.83136226,0.0011572,53.2174,226.5599,47.8003,189.4913,-0.0062778,-0.01233464,0.0,0 STARLINK-4737,1 53834U 22114S   22268.58334491 -.01233464  00000-0 -62778-2 0  9997,2 53834  53.2174 226.5599 0011572  47.8003 189.4913 15.83136226  1309,6699.715,90.959,329.333,313.827,0.0
53834.0,STARLINK-4737,PAYLOAD,2022-09-25 22:00:01,15.8225538,0.0007932999999999,53.2175,224.8863,44.3375,293.3377,-0.0064302,-0.01209291,0.0,0 STARLINK-4737,1 53834U 22114S   22268.91668981 -.01209291  00000-0 -64302-2 0  9994,2 53834  53.2175 224.8863 0007933  44.3375 293.3377 15.82255380  1306,6702.201,91.009,329.3830000000001,318.749,0.0
53834.0,STARLINK-4737,PAYLOAD,2022-09-26 10:00:00,15.8096244,0.0004437,53.2171,222.383,29.1549,276.964,-0.0069313,-0.01221373,0.0,0 STARLINK-4737,1 53834U 22114S   22269.41667824 -.01221373  00000-0 -69313-2 0  9997,2 53834  53.2171 222.3830 0004437  29.1549 276.9640 15.80962440  1736,6705.855,91.084,330.695,324.744,0.0
53834.0,STARLINK-4737,PAYLOAD,2022-09-26 14:00:01,15.80516496,0.0003452,53.2174,221.5477,15.6125,159.4942,-0.0069437,-0.01200203,0.0,0 STARLINK-4737,1 53834U 22114S   22269.58334491 -.01200203  00000-0 -69437-2 0  9992,2 53834  53.2174 221.5477 0003452  15.6125 159.4942 15.80516496  1302,6707.116,91.109,331.296,326.666,0.0
53834.0,STARLINK-4737,PAYLOAD,2022-09-26 22:00:00,15.79663083,0.0003759,53.2177,219.8809,296.9763,335.3096,-0.0073882999999999,-0.01224722,0.0,0 STARLINK-4737,1 53834U 22114S   22269.91667824 -.01224722  00000-0 -73883-2 0  9990,2 53834  53.2177 219.8809 0003759 296.9763 335.3096 15.79663083  1810,6709.531,91.159,333.9190000000001,328.874,0.0
53834.0,STARLINK-4737,PAYLOAD,2022-09-27 14:00:01,15.78000996,0.0006638999999999,53.2173,216.5543,273.9401,189.5426,-0.0085797999999999,-0.01309369,0.0,0 STARLINK-4737,1 53834U 22114S   22270.58334491 -.01309369  00000-0 -85798-2 0  9995,2 53834  53.2173 216.5543 0006639 273.9401 189.5426 15.78000996  1306,6714.2419999999975,91.255,340.565,331.649,0.0
53834.0,STARLINK-4737,PAYLOAD,2022-09-27 22:00:01,15.77157422,0.0005752,53.2171,214.8934,270.3173,287.2729,-0.0091423999999999,-0.01363374,0.0,0 STARLINK-4737,1 53834U 22114S   22270.91668981 -.01363374  00000-0 -91424-2 0  9995,2 53834  53.2171 214.8934 0005752 270.3173 287.2729 15.77157422  1972,6716.636,91.304,342.3640000000001,334.6380000000001,0.0
53834.0,STARLINK-4737,PAYLOAD,2022-09-28 14:00:01,15.75377924,7.859999999999999e-05,53.2174,211.5807,36.0728,346.4584,-0.0094819,-0.01308797,0.0,0 STARLINK-4737,1 53834U 22114S   22271.58334491 -.01308797  00000-0 -94819-2 0  9994,2 53834  53.2174 211.5807 0000786  36.0728 346.4584 15.75377924  1306,6721.693,91.407,344.086,343.03,0.0
53834.0,STARLINK-4737,PAYLOAD,2022-09-28 22:00:00,15.74410333,9.82e-05,53.2172,209.9265,59.4931,53.9991,-0.0084285,-0.01114786,0.0,0 STARLINK-4737,1 53834U 22114S   22271.91667824 -.01114786  00000-0 -84285-2 0  9999,2 53834  53.2172 209.9265 0000982  59.4931  53.9991 15.74410333  2131,6724.446999999999,91.463,346.972,345.651,0.0
53834.0,STARLINK-4737,PAYLOAD,2022-09-29 06:00:00,15.7347583,0.0001058,53.2175,208.2772,52.7382,150.6464,-0.0027971999999999,-0.00380419,0.0,0 STARLINK-4737,1 53834U 22114S   22272.25001157 -.00380419  00000-0 -27972-2 0  9995,2 53834  53.2175 208.2772 0001058  52.7382 150.6464 15.73475830  2187,6727.109,91.517,349.686,348.26199999999994,0.0
53834.0,STARLINK-4737,PAYLOAD,2022-09-29 14:00:01,15.73205011,0.0001146,53.2175,206.6261,65.4064,227.0678,-1.1443e-05,-2.225e-05,0.0,0 STARLINK-4737,1 53834U 22114S   22272.58334491 -.00002225  00000-0 -11443-4 0  9995,2 53834  53.2175 206.6261 0001146  65.4064 227.0678 15.73205011  2232,6727.880999999999,91.533,350.517,348.975,0.0
53834.0,STARLINK-4737,PAYLOAD,2022-09-29 22:00:00,15.7326901,0.0001187,53.2153,204.9726,77.7547,303.7116,-0.00050018,-0.00070437,0.0,0 STARLINK-4737,1 53834U 22114S   22272.91667824 -.00070437  00000-0 -50018-3 0  9991,2 53834  53.2153 204.9726 0001187  77.7547 303.7116 15.73269010  1307,6727.698,91.529,350.362,348.765,0.0
53834.0,STARLINK-4737,PAYLOAD,2022-09-30 06:00:02,15.73214348,0.0001268,53.2152,203.3248,68.9616,41.5559,-0.00015876,-0.00022854,0.0,0 STARLINK-4737,1 53834U 22114S   22273.25002315 -.00022854  00000-0 -15876-3 0  9990,2 53834  53.2152 203.3248 0001268  68.9616  41.5559 15.73214348  2344,6727.854,91.532,350.57199999999995,348.866,0.0
53834.0,STARLINK-4737,PAYLOAD,2022-09-30 14:00:01,15.73151885,0.0001230999999999,53.2154,201.6732,77.738,121.6561,0.00041071,0.00057295,0.0,0 STARLINK-4737,1 53834U 22114S   22273.58334491  .00057295  00000-0  41071-3 0  9990,2 53834  53.2154 201.6732 0001231  77.7380 121.6561 15.73151885  1305,6728.031999999997,91.536,350.726,349.069,0.0
53834.0,STARLINK-4737,PAYLOAD,2022-09-30 22:00:00,15.73220628,0.0001308,53.2154,200.0241,81.0217,207.2658,0.00033214,0.00046292,0.0,0 STARLINK-4737,1 53834U 22114S   22273.91667824  .00046292  00000-0  33214-3 0  9991,2 53834  53.2154 200.0241 0001308  81.0217 207.2658 15.73220628  1305,6727.8359999999975,91.532,350.581,348.821,0.0
53834.0,STARLINK-4737,PAYLOAD,2022-10-01 14:00:01,15.73193837,0.000109,53.2147,196.7246,84.1632,22.0826,-7.8829e-05,-0.00011664,0.0,0 STARLINK-4737,1 53834U 22114S   22274.58334491 -.00011664  00000-0 -78829-4 0  9995,2 53834  53.2147 196.7246 0001090  84.1632  22.0826 15.73193837  1307,6727.913000000001,91.534,350.511,349.0440000000001,0.0
53834.0,STARLINK-4737,PAYLOAD,2022-10-01 22:00:00,15.73047297,0.0001638,53.2148,195.0758,99.44,95.6104,-0.00053457,-0.00074499,0.0,0 STARLINK-4737,1 53834U 22114S   22274.91667824 -.00074499  00000-0 -53457-3 0  9995,2 53834  53.2148 195.0758 0001638  99.4400  95.6104 15.73047297  2605,6728.331,91.542,351.298,349.093,0.0
53834.0,STARLINK-4737,PAYLOAD,2022-10-02 06:00:00,15.72978438,0.0001544,53.2147,193.4282,91.814,191.9557,0.00079395,0.0011122999999999,0.0,0 STARLINK-4737,1 53834U 22114S   22275.25001157  .00111230  00000-0  79395-3 0  9996,2 53834  53.2147 193.4282 0001544  91.8140 191.9557 15.72978438  2657,6728.526999999999,91.546,351.431,349.353,0.0
53834.0,STARLINK-4737,PAYLOAD,2022-10-02 14:00:01,15.73030705,0.0001538,53.2151,191.7769,104.4436,268.0458,0.00011088,0.00014858,0.0,0 STARLINK-4737,1 53834U 22114S   22275.58334491  .00014858  00000-0  11088-3 0  9995,2 53834  53.2151 191.7769 0001538 104.4436 268.0458 15.73030705  2704,6728.378000000002,91.543,351.278,349.208,0.0
53834.0,STARLINK-4737,PAYLOAD,2022-10-02 22:00:00,15.72995263,0.0001655,53.2152,190.1285,101.7937,359.4273,0.0027593,0.00402232,0.0,0 STARLINK-4737,1 53834U 22114S   22275.91667824  .00402232  00000-0  27593-2 0  9995,2 53834  53.2152 190.1285 0001655 101.7937 359.4273 15.72995263  2761,6728.479,91.545,351.458,349.23,0.0
53834.0,STARLINK-4737,PAYLOAD,2022-10-03 14:00:01,15.73440785,0.000117,53.2148,186.8284,114.4247,164.8114,-0.00021125,-0.00030468,0.0,0 STARLINK-4737,1 53834U 22114S   22276.58334491 -.00030468  00000-0 -21125-3 0  9996,2 53834  53.2148 186.8284 0001170 114.4247 164.8114 15.73440785  2862,6727.209,91.519,349.861,348.287,0.0
53834.0,STARLINK-4737,PAYLOAD,2022-10-03 22:00:00,15.73435539,0.0001002999999999,53.215,185.1793,114.8143,253.5933,-0.0008908999999999,-0.0012506,0.0,0 STARLINK-4737,1 53834U 22114S   22276.91667824 -.00125060  00000-0 -89090-3 0  9990,2 53834  53.2150 185.1793 0001003 114.8143 253.5933 15.73435539  1300,6727.224,91.519,349.76300000000015,348.414,0.0
53834.0,STARLINK-4737,PAYLOAD,2022-10-04 14:00:01,15.73261497,0.0001139999999999,53.2155,181.8785,116.1458,70.5117,-0.00042297,-0.00059716,0.0,0 STARLINK-4737,1 53834U 22114S   22277.58334491 -.00059716  00000-0 -42297-3 0  9997,2 53834  53.2155 181.8785 0001140 116.1458  70.5117 15.73261497  1306,6727.72,91.53,350.352,348.8180000000001,0.0
53834.0,STARLINK-4737,PAYLOAD,2022-10-04 16:00:00,15.73225431,0.0001262,53.2155,181.466,116.9108,182.0042,-2.2029e-05,-3.714e-05,0.0,0 STARLINK-4737,1 53834U 22114S   22277.66667824 -.00003714  00000-0 -22029-4 0  9994,2 53834  53.2155 181.4660 0001262 116.9108 182.0042 15.73225431  3035,6727.823,91.532,350.537,348.839,0.0
53834.0,STARLINK-4737,PAYLOAD,2022-10-04 22:00:00,15.732244199999998,0.0001121,53.2156,180.23,114.2175,161.4043,-0.00030361,-0.00043055,0.0,0 STARLINK-4737,1 53834U 22114S   22277.91667824 -.00043055  00000-0 -30361-3 0  9991,2 53834  53.2156 180.2300 0001121 114.2175 161.4043 15.73224420  1300,6727.826,91.532,350.445,348.936,0.0
